FENGYUN 1C DEB          
1 31991U 99025CPU 26093.39066469  .00000147  00000+0  21112-3 0  9992
2 31991 100.4862 295.6115 0244672 138.0921 223.9232 13.61316923636063
FENGYUN 1C DEB          
1 31993U 99025CPW 26094.19590723  .00001197  00000+0  16885-2 0  9994
2 31993  99.2383  59.7120 0419825 222.2873 134.5166 13.27903567904350
FENGYUN 1C DEB          
1 31994U 99025CPX 26094.19752625  .00000315  00000+0  23298-3 0  9994
2 31994  98.5501  85.2907 0161286 193.0727 166.6232 13.95819451583659
FENGYUN 1C DEB          
1 31997U 99025CQA 26092.95719886  .00001763  00000+0  18408-2 0  9995
2 31997 102.5014 172.2903 0283858  23.3835 337.9918 13.61142578631969
FENGYUN 1C DEB          
1 32086U 99025CQC 26089.39544095  .00002938  00000+0  25002-2 0  9990
2 32086  99.2634 145.3493 0299553 213.9398 144.2262 13.69429294632541
FENGYUN 1C DEB          
1 32088U 99025CQE 26094.43185762  .00003502  00000+0  46498-2 0  9995
2 32088 102.4077 347.2809 0456519 114.5934 250.3447 13.25467267613372
FENGYUN 1C DEB          
1 32089U 99025CQF 26086.27935976  .00000901  00000+0  46484-3 0  9995
2 32089  98.6575  93.6262 0111417 184.5002 175.5180 14.14367672646933
FENGYUN 1C DEB          
1 32093U 99025CQK 26093.07699122  .00001541  00000+0  50704-3 0  9997
2 32093  98.9105 315.0676 0079450  25.3974 335.1084 14.37939460981170
FENGYUN 1C DEB          
1 32094U 99025CQL 26093.18935430  .00000983  00000+0  56930-3 0  9991
2 32094  98.7550  85.6845 0034164 314.0326  45.8032 14.10901121959361
FENGYUN 1C DEB          
1 32095U 99025CQM 26089.77152040  .00000578  00000+0  30417-3 0  9992
2 32095  98.6363 107.1657 0078898 141.5592 219.1240 14.16183896963464
FENGYUN 1C DEB          
1 32096U 99025CQN 26094.04228640  .00001704  00000+0  13029-2 0  9990
2 32096  99.0605 125.3059 0136050 194.5402 165.1826 13.90521129944229
FENGYUN 1C DEB          
1 32098U 99025CQQ 26093.70611438  .00000897  00000+0  36210-3 0  9995
2 32098  98.6221  88.3676 0194834 155.7589 205.2909 14.20509772658170
FENGYUN 1C DEB          
1 32101U 99025CQT 26091.99181876  .00002739  00000+0  17030-2 0  9992
2 32101  99.0320 355.0505 0120006 293.5363  65.3233 14.02350199947270
FENGYUN 1C DEB          
1 32105U 99025CQX 26091.81793880  .00001707  00000+0  20145-2 0  9996
2 32105 103.4621 124.4053 0400086 206.0261 152.0238 13.40798376611865
FENGYUN 1C DEB          
1 32106U 99025CQY 26092.78490450  .00009292  00000+0  34565-2 0  9999
2 32106 101.4660 103.6187 0106462 109.2381 252.0345 14.29270632709778
FENGYUN 1C DEB          
1 32109U 99025CRB 26091.40154298  .00001477  00000+0  42885-3 0  9999
2 32109  98.3485 332.3935 0205178 345.5718  13.9663 14.34315832664602
