[{"OBJECT_NAME":"FENGYUN 1C DEB","OBJECT_ID":"1999-025CPU","EPOCH":"2026-04-03T09:22:33.429216","MEAN_MOTION":13.61316923,"ECCENTRICITY":0.02446725,"INCLINATION":100.4862,"RA_OF_ASC_NODE":295.6115,"ARG_OF_PERICENTER":138.0921,"MEAN_ANOMALY":223.9232,"EPHEMERIS_TYPE":0,"CLASSIFICATION_TYPE":"U","NORAD_CAT_ID":31991,"ELEMENT_SET_NO":999,"REV_AT_EPOCH":63606,"BSTAR":0.00021111654,"MEAN_MOTION_DOT":1.47e-6,"MEAN_MOTION_DDOT":0},{"OBJECT_NAME":"FENGYUN 1C DEB","OBJECT_ID":"1999-025CPW","EPOCH":"2026-04-04T04:42:06.384672","MEAN_MOTION":13.27903567,"ECCENTRICITY":0.04198259,"INCLINATION":99.2383,"RA_OF_ASC_NODE":59.712,"ARG_OF_PERICENTER":222.2873,"MEAN_ANOMALY":134.5166,"EPHEMERIS_TYPE":0,"CLASSIFICATION_TYPE":"U","NORAD_CAT_ID":31993,"ELEMENT_SET_NO":999,"REV_AT_EPOCH":90435,"BSTAR":0.001688527,"MEAN_MOTION_DOT":1.197e-5,"MEAN_MOTION_DDOT":0},{"OBJECT_NAME":"FENGYUN 1C DEB","OBJECT_ID":"1999-025CPX","EPOCH":"2026-04-04T04:44:26.268000","MEAN_MOTION":13.95819451,"ECCENTRICITY":0.01612869,"INCLINATION":98.5501,"RA_OF_ASC_NODE":85.2907,"ARG_OF_PERICENTER":193.0727,"MEAN_ANOMALY":166.6232,"EPHEMERIS_TYPE":0,"CLASSIFICATION_TYPE":"U","NORAD_CAT_ID":31994,"ELEMENT_SET_NO":999,"REV_AT_EPOCH":58365,"BSTAR":0.00023297985,"MEAN_MOTION_DOT":3.15e-6,"MEAN_MOTION_DDOT":0},{"OBJECT_NAME":"FENGYUN 1C DEB","OBJECT_ID":"1999-025CQA","EPOCH":"2026-04-02T22:58:21.981504","MEAN_MOTION":13.61142578,"ECCENTRICITY":0.02838588,"INCLINATION":102.5014,"RA_OF_ASC_NODE":172.2903,"ARG_OF_PERICENTER":23.3835,"MEAN_ANOMALY":337.9918,"EPHEMERIS_TYPE":0,"CLASSIFICATION_TYPE":"U","NORAD_CAT_ID":31997,"ELEMENT_SET_NO":999,"REV_AT_EPOCH":63196,"BSTAR":0.0018408082,"MEAN_MOTION_DOT":1.763e-5,"MEAN_MOTION_DDOT":0},{"OBJECT_NAME":"FENGYUN 1C DEB","OBJECT_ID":"1999-025CQC","EPOCH":"2026-03-30T09:29:26.098080","MEAN_MOTION":13.69429294,"ECCENTRICITY":0.0299553,"INCLINATION":99.2634,"RA_OF_ASC_NODE":145.3493,"ARG_OF_PERICENTER":213.9398,"MEAN_ANOMALY":144.2262,"EPHEMERIS_TYPE":0,"CLASSIFICATION_TYPE":"U","NORAD_CAT_ID":32086,"ELEMENT_SET_NO":999,"REV_AT_EPOCH":63254,"BSTAR":0.0025002212,"MEAN_MOTION_DOT":2.938e-5,"MEAN_MOTION_DDOT":0},{"OBJECT_NAME":"FENGYUN 1C DEB","OBJECT_ID":"1999-025CQE","EPOCH":"2026-04-04T10:21:52.498368","MEAN_MOTION":13.25467267,"ECCENTRICITY":0.0456519,"INCLINATION":102.4077,"RA_OF_ASC_NODE":347.2809,"ARG_OF_PERICENTER":114.5934,"MEAN_ANOMALY":250.3447,"EPHEMERIS_TYPE":0,"CLASSIFICATION_TYPE":"U","NORAD_CAT_ID":32088,"ELEMENT_SET_NO":999,"REV_AT_EPOCH":61337,"BSTAR":0.0046498136,"MEAN_MOTION_DOT":3.502e-5,"MEAN_MOTION_DDOT":0},{"OBJECT_NAME":"FENGYUN 1C DEB","OBJECT_ID":"1999-025CQF","EPOCH":"2026-03-27T06:42:16.683264","MEAN_MOTION":14.14367672,"ECCENTRICITY":0.0111417,"INCLINATION":98.6575,"RA_OF_ASC_NODE":93.6262,"ARG_OF_PERICENTER":184.5002,"MEAN_ANOMALY":175.518,"EPHEMERIS_TYPE":0,"CLASSIFICATION_TYPE":"U","NORAD_CAT_ID":32089,"ELEMENT_SET_NO":999,"REV_AT_EPOCH":64693,"BSTAR":0.00046484,"MEAN_MOTION_DOT":9.01e-6,"MEAN_MOTION_DDOT":0},{"OBJECT_NAME":"FENGYUN 1C DEB","OBJECT_ID":"1999-025CQK","EPOCH":"2026-04-03T01:50:52.041408","MEAN_MOTION":14.3793946,"ECCENTRICITY":0.00794508,"INCLINATION":98.9105,"RA_OF_ASC_NODE":315.0676,"ARG_OF_PERICENTER":25.3974,"MEAN_ANOMALY":335.1084,"EPHEMERIS_TYPE":0,"CLASSIFICATION_TYPE":"U","NORAD_CAT_ID":32093,"ELEMENT_SET_NO":999,"REV_AT_EPOCH":98117,"BSTAR":0.00050704329,"MEAN_MOTION_DOT":1.541e-5,"MEAN_MOTION_DDOT":0},{"OBJECT_NAME":"FENGYUN 1C DEB","OBJECT_ID":"1999-025CQL","EPOCH":"2026-04-03T04:32:40.211520","MEAN_MOTION":14.10901121,"ECCENTRICITY":0.00341643,"INCLINATION":98.755,"RA_OF_ASC_NODE":85.6845,"ARG_OF_PERICENTER":314.0326,"MEAN_ANOMALY":45.8032,"EPHEMERIS_TYPE":0,"CLASSIFICATION_TYPE":"U","NORAD_CAT_ID":32094,"ELEMENT_SET_NO":999,"REV_AT_EPOCH":95936,"BSTAR":0.00056929649,"MEAN_MOTION_DOT":9.83e-6,"MEAN_MOTION_DDOT":0},{"OBJECT_NAME":"FENGYUN 1C DEB","OBJECT_ID":"1999-025CQM","EPOCH":"2026-03-30T18:30:59.362560","MEAN_MOTION":14.16183896,"ECCENTRICITY":0.0078898,"INCLINATION":98.6363,"RA_OF_ASC_NODE":107.1657,"ARG_OF_PERICENTER":141.5592,"MEAN_ANOMALY":219.124,"EPHEMERIS_TYPE":0,"CLASSIFICATION_TYPE":"U","NORAD_CAT_ID":32095,"ELEMENT_SET_NO":999,"REV_AT_EPOCH":96346,"BSTAR":0.00030417163,"MEAN_MOTION_DOT":5.78e-6,"MEAN_MOTION_DDOT":0},{"OBJECT_NAME":"FENGYUN 1C DEB","OBJECT_ID":"1999-025CQN","EPOCH":"2026-04-04T01:00:53.544960","MEAN_MOTION":13.90521129,"ECCENTRICITY":0.01360504,"INCLINATION":99.0605,"RA_OF_ASC_NODE":125.3059,"ARG_OF_PERICENTER":194.5402,"MEAN_ANOMALY":165.1826,"EPHEMERIS_TYPE":0,"CLASSIFICATION_TYPE":"U","NORAD_CAT_ID":32096,"ELEMENT_SET_NO":999,"REV_AT_EPOCH":94422,"BSTAR":0.0013029088,"MEAN_MOTION_DOT":1.704e-5,"MEAN_MOTION_DDOT":0},{"OBJECT_NAME":"FENGYUN 1C DEB","OBJECT_ID":"1999-025CQQ","EPOCH":"2026-04-03T16:56:48.282432","MEAN_MOTION":14.20509772,"ECCENTRICITY":0.01948341,"INCLINATION":98.6221,"RA_OF_ASC_NODE":88.3676,"ARG_OF_PERICENTER":155.7589,"MEAN_ANOMALY":205.2909,"EPHEMERIS_TYPE":0,"CLASSIFICATION_TYPE":"U","NORAD_CAT_ID":32098,"ELEMENT_SET_NO":999,"REV_AT_EPOCH":65817,"BSTAR":0.00036210056,"MEAN_MOTION_DOT":8.97e-6,"MEAN_MOTION_DDOT":0},{"OBJECT_NAME":"FENGYUN 1C DEB","OBJECT_ID":"1999-025CQT","EPOCH":"2026-04-01T23:48:13.140864","MEAN_MOTION":14.02350199,"ECCENTRICITY":0.0120006,"INCLINATION":99.032,"RA_OF_ASC_NODE":355.0505,"ARG_OF_PERICENTER":293.5363,"MEAN_ANOMALY":65.3233,"EPHEMERIS_TYPE":0,"CLASSIFICATION_TYPE":"U","NORAD_CAT_ID":32101,"ELEMENT_SET_NO":999,"REV_AT_EPOCH":94727,"BSTAR":0.001703,"MEAN_MOTION_DOT":2.739e-5,"MEAN_MOTION_DDOT":0},{"OBJECT_NAME":"FENGYUN 1C DEB","OBJECT_ID":"1999-025CQX","EPOCH":"2026-04-01T19:37:49.912320","MEAN_MOTION":13.40798376,"ECCENTRICITY":0.04000862,"INCLINATION":103.4621,"RA_OF_ASC_NODE":124.4053,"ARG_OF_PERICENTER":206.0261,"MEAN_ANOMALY":152.0238,"EPHEMERIS_TYPE":0,"CLASSIFICATION_TYPE":"U","NORAD_CAT_ID":32105,"ELEMENT_SET_NO":999,"REV_AT_EPOCH":61186,"BSTAR":0.002014486,"MEAN_MOTION_DOT":1.707e-5,"MEAN_MOTION_DDOT":0},{"OBJECT_NAME":"FENGYUN 1C DEB","OBJECT_ID":"1999-025CQY","EPOCH":"2026-04-02T18:50:15.748800","MEAN_MOTION":14.29270632,"ECCENTRICITY":0.01064627,"INCLINATION":101.466,"RA_OF_ASC_NODE":103.6187,"ARG_OF_PERICENTER":109.2381,"MEAN_ANOMALY":252.0345,"EPHEMERIS_TYPE":0,"CLASSIFICATION_TYPE":"U","NORAD_CAT_ID":32106,"ELEMENT_SET_NO":999,"REV_AT_EPOCH":70977,"BSTAR":0.003456462,"MEAN_MOTION_DOT":9.292e-5,"MEAN_MOTION_DDOT":0},{"OBJECT_NAME":"FENGYUN 1C DEB","OBJECT_ID":"1999-025CRB","EPOCH":"2026-04-01T09:38:13.313472","MEAN_MOTION":14.34315832,"ECCENTRICITY":0.02051784,"INCLINATION":98.3485,"RA_OF_ASC_NODE":332.3935,"ARG_OF_PERICENTER":345.5718,"MEAN_ANOMALY":13.9663,"EPHEMERIS_TYPE":0,"CLASSIFICATION_TYPE":"U","NORAD_CAT_ID":32109,"ELEMENT_SET_NO":999,"REV_AT_EPOCH":66460,"BSTAR":0.00042884994,"MEAN_MOTION_DOT":1.477e-5,"MEAN_MOTION_DDOT":0}]
